NORAD_CAT_ID,OBJECT_NAME,OBJECT_TYPE,EPOCH,MEAN_MOTION,ECCENTRICITY,INCLINATION,RA_OF_ASC_NODE,ARG_OF_PERICENTER,MEAN_ANOMALY,BSTAR,MEAN_MOTION_DOT,MEAN_MOTION_DDOT,TLE_LINE0,TLE_LINE1,TLE_LINE2,SEMIMAJOR_AXIS,PERIOD,APOGEE,PERIGEE,DECAYED
55783.0,STARLINK-5825,PAYLOAD,2023-12-24 13:49:13,14.98334092,0.0002914,70.001,77.1422,267.7107,92.3719,7.2087e-05,7.67e-06,0.0,0 STARLINK-5825,1 55783U 23028AU  23358.57585114  .00000767  00000-0  72087-4 0  9998,2 55783  70.0010  77.1422 0002914 267.7107  92.3719 14.98334092 46270,6950.18,96.107,574.071,570.02,0.0
55783.0,STARLINK-5825,PAYLOAD,2023-12-24 15:25:21,14.98335101,0.0002918,70.001,76.974,267.7963,92.2862,8.0799e-05,8.71e-06,0.0,0 STARLINK-5825,1 55783U 23028AU  23358.64261007  .00000871  00000-0  80799-4 0  9993,2 55783  70.0010  76.9740 0002918 267.7963  92.2862 14.98335101 46285,6950.177,96.107,574.07,570.014,0.0
55783.0,STARLINK-5825,PAYLOAD,2023-12-25 12:15:06,14.98328052,0.0002698,70.0014,74.7859,262.4797,97.6056,1.553e-05,9.2e-07,0.0,0 STARLINK-5825,1 55783U 23028AU  23359.51049598  .00000092  00000-0  15530-4 0  9995,2 55783  70.0014  74.7859 0002698 262.4797  97.6056 14.98328052 46414,6950.199,96.107,573.939,570.189,0.0
55783.0,STARLINK-5825,PAYLOAD,2023-12-25 13:51:14,14.98329425,0.0002661,70.0014,74.6177,263.1209,96.9648,1.827e-05,1.25e-06,0.0,0 STARLINK-5825,1 55783U 23028AU  23359.57725513  .00000125  00000-0  18270-4 0  9990,2 55783  70.0014  74.6177 0002661 263.1209  96.9648 14.98329425 46427,6950.195,96.107,573.909,570.21,0.0
55783.0,STARLINK-5825,PAYLOAD,2023-12-25 15:27:22,14.98329852,0.0002854,70.0014,74.4487,270.2533,89.8299,3.2071e-05,2.9e-06,0.0,0 STARLINK-5825,1 55783U 23028AU  23359.64401477  .00000290  00000-0  32071-4 0  9996,2 55783  70.0014  74.4487 0002854 270.2533  89.8299 14.98329852 46430,6950.193,96.107,574.042,570.075,0.0
55783.0,STARLINK-5825,PAYLOAD,2023-12-26 13:53:16,14.983238,0.0002309,70.0009,72.0934,258.2673,101.8227,3.1706e-05,2.85e-06,0.0,0 STARLINK-5825,1 55783U 23028AU  23360.57865832  .00000285  00000-0  31706-4 0  9997,2 55783  70.0009  72.0934 0002309 258.2673 101.8227 14.98323800 46579,6950.212,96.107,573.682,570.472,0.0
55783.0,STARLINK-5825,PAYLOAD,2023-12-26 15:29:23,14.98330092,0.0002992,70.0004,71.9244,268.5716,91.51,-1.8042e-05,-3.08e-06,0.0,0 STARLINK-5825,1 55783U 23028AU  23360.64541527 -.00000308  00000-0 -18042-4 0  9993,2 55783  70.0004  71.9244 0002992 268.5716  91.5100 14.98330092 46583,6950.193,96.107,574.137,569.978,0.0
55783.0,STARLINK-5825,PAYLOAD,2023-12-27 13:55:16,14.9833217,0.0002761,70.0007,69.5694,258.5396,101.5453,2.5935e-05,2.17e-06,0.0,0 STARLINK-5825,1 55783U 23028AU  23361.58005219  .00000217  00000-0  25935-4 0  9996,2 55783  70.0007  69.5694 0002761 258.5396 101.5453 14.98332170 46723,6950.186,96.107,573.97,570.132,0.0
55783.0,STARLINK-5825,PAYLOAD,2023-12-28 04:20:29,14.98328255,0.0002633,70.0011,68.0538,259.0353,101.051,6.912e-05,7.32e-06,0.0,0 STARLINK-5825,1 55783U 23028AU  23362.18089296  .00000732  00000-0  69120-4 0  9996,2 55783  70.0011  68.0538 0002633 259.0353 101.0510 14.98328255 46814,6950.198,96.107,573.893,570.233,0.0
55783.0,STARLINK-5825,PAYLOAD,2023-12-28 13:57:17,14.98327087,0.0002762,70.0003,67.0433,262.5778,97.5067,2.2352e-05,1.74e-06,0.0,0 STARLINK-5825,1 55783U 23028AU  23362.58145529  .00000174  00000-0  22352-4 0  9998,2 55783  70.0003  67.0433 0002762 262.5778  97.5067 14.98327087 46875,6950.202,96.107,573.987,570.147,0.0
55783.0,STARLINK-5825,PAYLOAD,2023-12-29 10:47:02,14.98329544,0.0002781,70.0002,64.8551,262.9323,97.152,-3.645e-05,-5.28e-06,0.0,0 STARLINK-5825,1 55783U 23028AU  23363.44933534 -.00000528  00000-0 -36450-4 0  9994,2 55783  70.0002  64.8551 0002781 262.9323  97.1520 14.98329544 47007,6950.194,96.107,573.992,570.126,0.0
55783.0,STARLINK-5825,PAYLOAD,2023-12-29 13:59:18,14.98330387,0.000278,70.0002,64.5187,263.3661,96.7181,-2.6636e-05,-4.11e-06,0.0,0 STARLINK-5825,1 55783U 23028AU  23363.58285450 -.00000411  00000-0 -26636-4 0  9992,2 55783  70.0002  64.5187 0002780 263.3661  96.7181 14.98330387 47025,6950.192,96.107,573.989,570.125,0.0
55783.0,STARLINK-5825,PAYLOAD,2023-12-30 10:49:03,14.98330386,0.0002795,70.0002,62.3301,263.5002,96.5838,2.4396e-05,1.98e-06,0.0,0 STARLINK-5825,1 55783U 23028AU  23364.45073247  .00000198  00000-0  24396-4 0  9999,2 55783  70.0002  62.3301 0002795 263.5002  96.5838 14.98330386 47156,6950.192,96.107,573.999,570.114,0.0
55783.0,STARLINK-5825,PAYLOAD,2023-12-30 14:01:19,14.98331007,0.0002797,70.0001,61.9936,263.9086,96.1755,2.9736e-05,2.62e-06,0.0,0 STARLINK-5825,1 55783U 23028AU  23364.58425185  .00000262  00000-0  29736-4 0  9990,2 55783  70.0001  61.9936 0002797 263.9086  96.1755 14.98331007 47179,6950.19,96.107,573.999,570.111,0.0
55783.0,STARLINK-5825,PAYLOAD,2023-12-31 10:51:06,14.98301567,0.0002713,70.0005,59.8059,261.579,98.5062,-0.0002782,-3.408e-05,0.0,0 STARLINK-5825,1 55783U 23028AU  23365.45216039 -.00003408  00000-0 -27820-3 0  9991,2 55783  70.0005  59.8059 0002713 261.5790  98.5062 14.98301567 47309,6950.281,96.109,574.031,570.26,0.0
55783.0,STARLINK-5825,PAYLOAD,2023-12-31 14:03:23,14.9829772,0.0002669,70.0004,59.4687,263.6536,96.4319,-0.00031053,-3.793e-05,0.0,0 STARLINK-5825,1 55783U 23028AU  23365.58568621 -.00003793  00000-0 -31053-3 0  9992,2 55783  70.0004  59.4687 0002669 263.6536  96.4319 14.98297720 47321,6950.293,96.109,574.013,570.303,0.0
55783.0,STARLINK-5825,PAYLOAD,2024-01-01 10:53:06,14.98321725,0.0002588,70.0007,57.2807,254.5947,105.4927,-4.7166e-05,-6.56e-06,0.0,0 STARLINK-5825,1 55783U 23028AU  24001.45355092 -.00000656  00000-0 -47166-4 0  9990,2 55783  70.0007  57.2807 0002588 254.5947 105.4927 14.98321725 47452,6950.218,96.108,573.882,570.285,0.0
55783.0,STARLINK-5825,PAYLOAD,2024-01-01 14:05:22,14.98322245,0.000255,70.0005,56.9425,261.9692,98.1177,-2.9361e-05,-4.43e-06,0.0,0 STARLINK-5825,1 55783U 23028AU  24001.58707151 -.00000443  00000-0 -29361-4 0  9992,2 55783  70.0005  56.9425 0002550 261.9692  98.1177 14.98322245 47475,6950.217,96.107,573.854,570.31,0.0
55783.0,STARLINK-5825,PAYLOAD,2024-01-02 04:30:34,14.98329563,0.0003192,69.9988,55.4267,270.3248,89.7545,9.747e-05,1.07e-05,0.0,0 STARLINK-5825,1 55783U 23028AU  24002.18790344  .00001070  00000-0  97470-4 0  9996,2 55783  69.9988  55.4267 0003192 270.3248  89.7545 14.98329563 47569,6950.194,96.107,574.278,569.841,0.0
55783.0,STARLINK-5825,PAYLOAD,2024-01-02 12:31:14,14.98333802,0.0002692,70.0001,54.5856,260.8623,99.2232,0.00014682,1.659e-05,0.0,0 STARLINK-5825,1 55783U 23028AU  24002.52169915  .00001659  00000-0  14682-3 0  9994,2 55783  70.0001  54.5856 0002692 260.8623  99.2232 14.98333802 47613,6950.181,96.107,573.917,570.175,0.0
55783.0,STARLINK-5825,PAYLOAD,2024-01-03 10:57:07,14.98335133,0.0002747,70.0001,52.2295,255.3787,104.7067,9.6056e-05,1.053e-05,0.0,0 STARLINK-5825,1 55783U 23028AU  24003.45633836  .00001053  00000-0  96056-4 0  9999,2 55783  70.0001  52.2295 0002747 255.3787 104.7067 14.98335133 47758,6950.177,96.107,573.951,570.133,0.0
55783.0,STARLINK-5825,PAYLOAD,2024-01-03 12:33:15,14.98337107,0.0002988,69.9994,52.0606,265.8752,94.2066,0.00011453,1.274e-05,0.0,0 STARLINK-5825,1 55783U 23028AU  24003.52309681  .00001274  00000-0  11453-3 0  9997,2 55783  69.9994  52.0606 0002988 265.8752  94.2066 14.98337107 47761,6950.171,96.107,574.113,569.959,0.0
55783.0,STARLINK-5825,PAYLOAD,2024-01-04 10:59:08,14.98338726,0.0002782,70.0,49.7042,260.9396,99.1448,-6.0383e-05,-8.14e-06,0.0,0 STARLINK-5825,1 55783U 23028AU  24004.45773433 -.00000814  00000-0 -60383-4 0  9998,2 55783  70.0000  49.7042 0002782 260.9396  99.1448 14.98338726 47903,6950.166,96.106,573.964,570.097,0.0
55783.0,STARLINK-5825,PAYLOAD,2024-01-04 12:35:16,14.98339414,0.0002872,69.9997,49.536,262.4757,97.6076,-6.6224e-05,-8.83e-06,0.0,0 STARLINK-5825,1 55783U 23028AU  24004.52449357 -.00000883  00000-0 -66224-4 0  9997,2 55783  69.9997  49.5360 0002872 262.4757  97.6076 14.98339414 47910,6950.164,96.106,574.025,570.033,0.0
55783.0,STARLINK-5825,PAYLOAD,2024-01-05 12:37:17,14.98330587,0.0002819,69.9997,47.0109,264.7158,95.368,-7.6214e-05,-1.002e-05,0.0,0 STARLINK-5825,1 55783U 23028AU  24005.52589637 -.00001002  00000-0 -76214-4 0  9998,2 55783  69.9997  47.0109 0002819 264.7158  95.3680 14.98330587 48060,6950.191,96.107,574.015,570.097,0.0
55783.0,STARLINK-5825,PAYLOAD,2024-01-06 04:38:37,14.9833455,0.0003086,69.9989,45.3262,269.3815,90.699,1.6045e-05,9.8e-07,0.0,0 STARLINK-5825,1 55783U 23028AU  24006.19348907  .00000098  00000-0  16045-4 0  9993,2 55783  69.9989  45.3262 0003086 269.3815  90.6990 14.98334550 48167,6950.179,96.107,574.189,569.899,0.0
55783.0,STARLINK-5825,PAYLOAD,2024-01-06 12:39:17,14.98338775,0.0002918,69.9996,44.4846,270.0993,89.9832,2.149e-05,1.63e-06,0.0,0 STARLINK-5825,1 55783U 23028AU  24006.52728531  .00000163  00000-0  21490-4 0  9998,2 55783  69.9996  44.4846 0002918 270.0993  89.9832 14.98338775 48217,6950.166,96.106,574.059,570.003,0.0
55783.0,STARLINK-5825,PAYLOAD,2024-01-07 11:05:11,14.98324204,0.0002567,70.0,42.129,253.2037,106.884,2.1548e-05,1.64e-06,0.0,0 STARLINK-5825,1 55783U 23028AU  24007.46193367  .00000164  00000-0  21548-4 0  9990,2 55783  70.0000  42.1290 0002567 253.2037 106.8840 14.98324204 48351,6950.211,96.107,573.86,570.292,0.0
55783.0,STARLINK-5825,PAYLOAD,2024-01-08 03:06:31,14.98339381,0.000266,69.9995,40.4452,261.5495,98.5362,-0.00015974,-1.999e-05,0.0,0 STARLINK-5825,1 55783U 23028AU  24008.12952892 -.00001999  00000-0 -15974-3 0  9994,2 55783  69.9995  40.4452 0002660 261.5495  98.5362 14.98339381 48455,6950.164,96.106,573.878,570.18,0.0
55783.0,STARLINK-5825,PAYLOAD,2024-01-08 11:07:11,14.98331377,0.0002701,69.9999,39.6035,262.5617,97.5236,-2.4963e-05,-3.91e-06,0.0,0 STARLINK-5825,1 55783U 23028AU  24008.46332930 -.00000391  00000-0 -24963-4 0  9990,2 55783  69.9999  39.6035 0002701 262.5617  97.5236 14.98331377 48501,6950.189,96.107,573.931,570.176,0.0
